start=new Date('2022-08-22T00:00:00.000Z').valueOf();
sats=[{"APOAPSIS":"548.187","TLE_LINE1":"1 47771U 21017BB  22233.47989410 -.00000036  00000-0  16469-4 0  9991","MEAN_ANOMALY":"288.9675","RCS_SIZE":"LARGE","DECAY_DATE":null,"OBJECT_ID":"2021-017BB","FILE":"3542305","OBJECT_NAME":"STARLINK-2194","CLASSIFICATION_TYPE":"U","PERIOD":"95.592","ECCENTRICITY":"0.00013890","GP_ID":"210656263","SEMIMAJOR_AXIS":"6925.360","MEAN_MOTION_DOT":"-0.00000036","LAUNCH_DATE":"2021-03-04","REV_AT_EPOCH":"8246","MEAN_ELEMENT_THEORY":"SGP4","CENTER_NAME":"EARTH","ELEMENT_SET_NO":"999","INCLINATION":"53.0540","EPHEMERIS_TYPE":"0","REF_FRAME":"TEME","ARG_OF_PERICENTER":"71.1465","PERIAPSIS":"546.263","TIME_SYSTEM":"UTC","EPOCH":"2022-08-21T11:31:02.850240","BSTAR":"0.00001646900000","OBJECT_TYPE":"PAYLOAD","NORAD_CAT_ID":"47771","TLE_LINE2":"2 47771  53.0540 265.5408 0001389  71.1465 288.9675 15.06396355 82468","MEAN_MOTION":"15.06396355","COUNTRY_CODE":"US","MEAN_MOTION_DDOT":"0.0000000000000","SITE":"AFETR","RA_OF_ASC_NODE":"265.5408"},{"PERIAPSIS":"546.320","ARG_OF_PERICENTER":"79.8459","TIME_SYSTEM":"UTC","EPHEMERIS_TYPE":"0","REF_FRAME":"TEME","COUNTRY_CODE":"US","MEAN_MOTION":"15.06395331","RA_OF_ASC_NODE":"278.8013","SITE":"AFETR","MEAN_MOTION_DDOT":"0.0000000000000","OBJECT_TYPE":"PAYLOAD","BSTAR":"-0.00000069428000","EPOCH":"2022-08-21T20:49:00.847488","TLE_LINE2":"2 47772  53.0540 278.8013 0001311  79.8459 280.2677 15.06395331 82281","NORAD_CAT_ID":"47772","CLASSIFICATION_TYPE":"U","OBJECT_NAME":"STARLINK-2195","FILE":"3542671","OBJECT_ID":"2021-017BC","PERIOD":"95.592","APOAPSIS":"548.136","TLE_LINE1":"1 47772U 21017BC  22233.86737092 -.00000292  00000-0 -69428-6 0  9992","MEAN_ANOMALY":"280.2677","DECAY_DATE":null,"RCS_SIZE":"LARGE","ELEMENT_SET_NO":"999","MEAN_ELEMENT_THEORY":"SGP4","REV_AT_EPOCH":"8228","CENTER_NAME":"EARTH","INCLINATION":"53.0540","SEMIMAJOR_AXIS":"6925.363","GP_ID":"210690558","ECCENTRICITY":"0.00013110","LAUNCH_DATE":"2021-03-04","MEAN_MOTION_DOT":"-0.00000292"},{"SEMIMAJOR_AXIS":"6925.323","GP_ID":"210690808","ECCENTRICITY":"0.00015050","LAUNCH_DATE":"2021-03-04","MEAN_MOTION_DOT":"0.00001649","ELEMENT_SET_NO":"999","REV_AT_EPOCH":"8227","CENTER_NAME":"EARTH","MEAN_ELEMENT_THEORY":"SGP4","INCLINATION":"53.0542","APOAPSIS":"548.230","TLE_LINE1":"1 47773U 21017BD  22233.86367427  .00001649  00000-0  12957-3 0  9991","MEAN_ANOMALY":"292.9086","DECAY_DATE":null,"RCS_SIZE":"LARGE","CLASSIFICATION_TYPE":"U","OBJECT_NAME":"STARLINK-2196","FILE":"3542671","OBJECT_ID":"2021-017BD","PERIOD":"95.592","OBJECT_TYPE":"PAYLOAD","BSTAR":"0.00012957000000","EPOCH":"2022-08-21T20:43:41.456928","TLE_LINE2":"2 47773  53.0542 278.8125 0001505  67.2062 292.9086 15.06408422 82273","NORAD_CAT_ID":"47773","COUNTRY_CODE":"US","MEAN_MOTION":"15.06408422","RA_OF_ASC_NODE":"278.8125","SITE":"AFETR","MEAN_MOTION_DDOT":"0.0000000000000","EPHEMERIS_TYPE":"0","REF_FRAME":"TEME","PERIAPSIS":"546.145","ARG_OF_PERICENTER":"67.2062","TIME_SYSTEM":"UTC"},{"EPHEMERIS_TYPE":"0","REF_FRAME":"TEME","PERIAPSIS":"546.304","ARG_OF_PERICENTER":"72.2175","TIME_SYSTEM":"UTC","OBJECT_TYPE":"PAYLOAD","BSTAR":"0.00013531000000","EPOCH":"2022-08-21T20:38:23.561952","TLE_LINE2":"2 47774  53.0537 278.8382 0001328  72.2175 287.8959 15.06396585 82286","NORAD_CAT_ID":"47774","COUNTRY_CODE":"US","MEAN_MOTION":"15.06396585","RA_OF_ASC_NODE":"278.8382","SITE":"AFETR","MEAN_MOTION_DDOT":"0.0000000000000","TLE_LINE1":"1 47774U 21017BE  22233.85999493  .00001734  00000-0  13531-3 0  9999","MEAN_ANOMALY":"287.8959","APOAPSIS":"548.144","DECAY_DATE":null,"RCS_SIZE":"LARGE","CLASSIFICATION_TYPE":"U","OBJECT_NAME":"STARLINK-2197","FILE":"3542671","OBJECT_ID":"2021-017BE","PERIOD":"95.592","SEMIMAJOR_AXIS":"6925.359","GP_ID":"210691057","ECCENTRICITY":"0.00013280","LAUNCH_DATE":"2021-03-04","MEAN_MOTION_DOT":"0.00001734","ELEMENT_SET_NO":"999","REV_AT_EPOCH":"8228","CENTER_NAME":"EARTH","MEAN_ELEMENT_THEORY":"SGP4","INCLINATION":"53.0537"},{"RA_OF_ASC_NODE":"280.2631","SITE":"AFETR","MEAN_MOTION_DDOT":"0.0000000000000","COUNTRY_CODE":"US","MEAN_MOTION":"15.06391686","TLE_LINE2":"2 47775  53.0543 280.2631 0001333  72.7137 287.3997 15.06391686 82281","NORAD_CAT_ID":"47775","OBJECT_TYPE":"PAYLOAD","BSTAR":"0.00005186400000","EPOCH":"2022-08-21T12:56:38.113728","TIME_SYSTEM":"UTC","PERIAPSIS":"546.316","ARG_OF_PERICENTER":"72.7137","REF_FRAME":"TEME","EPHEMERIS_TYPE":"0","INCLINATION":"53.0543","ELEMENT_SET_NO":"999","REV_AT_EPOCH":"8228","MEAN_ELEMENT_THEORY":"SGP4","CENTER_NAME":"EARTH","LAUNCH_DATE":"2021-03-04","MEAN_MOTION_DOT":"0.00000491","SEMIMAJOR_AXIS":"6925.374","GP_ID":"210691310","ECCENTRICITY":"0.00013330","PERIOD":"95.593","CLASSIFICATION_TYPE":"U","OBJECT_NAME":"STARLINK-2198","FILE":"3542671","OBJECT_ID":"2021-017BF","DECAY_DATE":null,"RCS_SIZE":"LARGE","APOAPSIS":"548.162","TLE_LINE1":"1 47775U 21017BF  22233.53933002  .00000491  00000-0  51864-4 0  9990","MEAN_ANOMALY":"287.3997"},{"FILE":"3542468","OBJECT_ID":"2021-017BG","CLASSIFICATION_TYPE":"U","OBJECT_NAME":"STARLINK-2209","PERIOD":"95.593","TLE_LINE1":"1 47776U 21017BG  22233.83144741  .00000075  00000-0  23903-4 0  9999","MEAN_ANOMALY":"286.7386","APOAPSIS":"548.217","RCS_SIZE":"LARGE","DECAY_DATE":null,"REV_AT_EPOCH":"8178","CENTER_NAME":"EARTH","MEAN_ELEMENT_THEORY":"SGP4","ELEMENT_SET_NO":"999","INCLINATION":"53.0545","ECCENTRICITY":"0.00013900","SEMIMAJOR_AXIS":"6925.390","GP_ID":"210664347","MEAN_MOTION_DOT":"0.00000075","LAUNCH_DATE":"2021-03-04","ARG_OF_PERICENTER":"73.3755","PERIAPSIS":"546.292","TIME_SYSTEM":"UTC","EPHEMERIS_TYPE":"0","REF_FRAME":"TEME","MEAN_MOTION":"15.06386570","COUNTRY_CODE":"US","SITE":"AFETR","MEAN_MOTION_DDOT":"0.0000000000000","RA_OF_ASC_NODE":"268.9578","EPOCH":"2022-08-21T19:57:17.056224","OBJECT_TYPE":"PAYLOAD","BSTAR":"0.00002390300000","NORAD_CAT_ID":"47776","TLE_LINE2":"2 47776  53.0545 268.9578 0001390  73.3755 286.7386 15.06386570 81788"},{"RCS_SIZE":"LARGE","DECAY_DATE":null,"TLE_LINE1":"1 47777U 21017BH  22233.50338314  .00002965  00000-0  21795-3 0  9991","MEAN_ANOMALY":"298.9990","APOAPSIS":"548.355","PERIOD":"95.593","FILE":"3542468","OBJECT_ID":"2021-017BH","CLASSIFICATION_TYPE":"U","OBJECT_NAME":"STARLINK-2210","MEAN_MOTION_DOT":"0.00002965","LAUNCH_DATE":"2021-03-04","ECCENTRICITY":"0.00016000","SEMIMAJOR_AXIS":"6925.382","GP_ID":"210664849","INCLINATION":"53.0533","REV_AT_EPOCH":"8173","CENTER_NAME":"EARTH","MEAN_ELEMENT_THEORY":"SGP4","ELEMENT_SET_NO":"999","REF_FRAME":"TEME","EPHEMERIS_TYPE":"0","TIME_SYSTEM":"UTC","ARG_OF_PERICENTER":"61.1159","PERIAPSIS":"546.139","NORAD_CAT_ID":"47777","TLE_LINE2":"2 47777  53.0533 270.4374 0001600  61.1159 298.9990 15.06389205 81734","EPOCH":"2022-08-21T12:04:52.303296","OBJECT_TYPE":"PAYLOAD","BSTAR":"0.00021795000000","MEAN_MOTION_DDOT":"0.0000000000000","SITE":"AFETR","RA_OF_ASC_NODE":"270.4374","MEAN_MOTION":"15.06389205","COUNTRY_CODE":"US"},{"EPHEMERIS_TYPE":"0","REF_FRAME":"TEME","ARG_OF_PERICENTER":"79.5160","PERIAPSIS":"546.322","TIME_SYSTEM":"UTC","EPOCH":"2022-08-21T19:14:49.332768","BSTAR":"-0.00006514300000","OBJECT_TYPE":"PAYLOAD","NORAD_CAT_ID":"47778","TLE_LINE2":"2 47778  53.0543 269.0821 0001318  79.5160 280.5978 15.06393131 81789","MEAN_MOTION":"15.06393131","COUNTRY_CODE":"US","MEAN_MOTION_DDOT":"0.0000000000000","SITE":"AFETR","RA_OF_ASC_NODE":"269.0821","MEAN_ANOMALY":"280.5978","TLE_LINE1":"1 47778U 21017BJ  22233.80195987 -.00001251  00000-0 -65143-4 0  9997","APOAPSIS":"548.147","RCS_SIZE":"LARGE","DECAY_DATE":null,"OBJECT_ID":"2021-017BJ","FILE":"3542468","OBJECT_NAME":"STARLINK-2211","CLASSIFICATION_TYPE":"U","PERIOD":"95.593","ECCENTRICITY":"0.00013180","GP_ID":"210664336","SEMIMAJOR_AXIS":"6925.370","MEAN_MOTION_DOT":"-0.00001251","LAUNCH_DATE":"2021-03-04","REV_AT_EPOCH":"8178","CENTER_NAME":"EARTH","MEAN_ELEMENT_THEORY":"SGP4","ELEMENT_SET_NO":"999","INCLINATION":"53.0543"},{"MEAN_MOTION":"15.12329182","COUNTRY_CODE":"US","SITE":"AFETR","MEAN_MOTION_DDOT":"0.0000000000000","RA_OF_ASC_NODE":"256.6643","EPOCH":"2022-08-21T11:56:42.914688","BSTAR":"0.00028577000000","OBJECT_TYPE":"PAYLOAD","NORAD_CAT_ID":"47779","TLE_LINE2":"2 47779  53.0553 256.6643 0001497  61.1783 298.9358 15.12329182 81935","ARG_OF_PERICENTER":"61.1783","PERIAPSIS":"528.067","TIME_SYSTEM":"UTC","EPHEMERIS_TYPE":"0","REF_FRAME":"TEME","REV_AT_EPOCH":"8193","CENTER_NAME":"EARTH","MEAN_ELEMENT_THEORY":"SGP4","ELEMENT_SET_NO":"999","INCLINATION":"53.0553","ECCENTRICITY":"0.00014970","GP_ID":"210664359","SEMIMAJOR_AXIS":"6907.236","MEAN_MOTION_DOT":"0.00004714","LAUNCH_DATE":"2021-03-04","OBJECT_ID":"2021-017BK","FILE":"3542485","OBJECT_NAME":"STARLINK-2212","CLASSIFICATION_TYPE":"U","PERIOD":"95.217","APOAPSIS":"530.135","TLE_LINE1":"1 47779U 21017BK  22233.49771892  .00004714  00000-0  28577-3 0  9992","MEAN_ANOMALY":"298.9358","RCS_SIZE":"LARGE","DECAY_DATE":null},{"RCS_SIZE":"LARGE","DECAY_DATE":null,"TLE_LINE1":"1 47780U 21017BL  22233.82774889 -.00007839  00000-0 -50765-3 0  9997","MEAN_ANOMALY":"287.4476","APOAPSIS":"548.064","PERIOD":"95.591","FILE":"3542485","OBJECT_ID":"2021-017BL","CLASSIFICATION_TYPE":"U","OBJECT_NAME":"STARLINK-2213","MEAN_MOTION_DOT":"-0.00007839","LAUNCH_DATE":"2021-03-04","ECCENTRICITY":"0.00013170","SEMIMAJOR_AXIS":"6925.287","GP_ID":"210664358","INCLINATION":"53.0538","REV_AT_EPOCH":"8179","CENTER_NAME":"EARTH","MEAN_ELEMENT_THEORY":"SGP4","ELEMENT_SET_NO":"999","REF_FRAME":"TEME","EPHEMERIS_TYPE":"0","TIME_SYSTEM":"UTC","ARG_OF_PERICENTER":"72.6657","PERIAPSIS":"546.240","NORAD_CAT_ID":"47780","TLE_LINE2":"2 47780  53.0538 268.9564 0001317  72.6657 287.4476 15.06419973 81795","EPOCH":"2022-08-21T19:51:57.504096","OBJECT_TYPE":"PAYLOAD","BSTAR":"-0.00050765000000","SITE":"AFETR","MEAN_MOTION_DDOT":"0.0000000000000","RA_OF_ASC_NODE":"268.9564","MEAN_MOTION":"15.06419973","COUNTRY_CODE":"US"}];
